$$SOE
2459580.500000000, A.D. 2022-Jan-01 00:00:00.0000, 3.565173344747695E+08, -3.047679985999154E+08, 7.230889698600185E+07,
2459587.500000000, A.D. 2022-Jan-08 00:00:00.0000, 3.626707527050357E+08, -2.971200420418789E+08, 7.149126493956885E+07,
2459594.500000000, A.D. 2022-Jan-15 00:00:00.0000, 3.686594242259901E+08, -2.893368310078099E+08, 7.064100654796639E+07,
2459601.500000000, A.D. 2022-Jan-22 00:00:00.0000, 3.744802922676802E+08, -2.814216389462497E+08, 6.975844080000365E+07,
2459608.500000000, A.D. 2022-Jan-29 00:00:00.0000, 3.801303534398955E+08, -2.733778020348743E+08, 6.884390077336577E+07,
2459615.500000000, A.D. 2022-Feb-05 00:00:00.0000, 3.856066568409702E+08, -2.652087195726250E+08, 6.789773383290991E+07,
2459622.500000000, A.D. 2022-Feb-12 00:00:00.0000, 3.909063053667014E+08, -2.569178554211521E+08, 6.692030154299122E+07,
2459629.500000000, A.D. 2022-Feb-19 00:00:00.0000, 3.960264578951162E+08, -2.485087381241835E+08, 6.591197960855659E+07,
2459636.500000000, A.D. 2022-Feb-26 00:00:00.0000, 4.009643310363005E+08, -2.399849604260985E+08, 6.487315790590988E+07,
2459643.500000000, A.D. 2022-Mar-05 00:00:00.0000, 4.057172006067389E+08, -2.313501788047836E+08, 6.380424053764485E+07,
2459650.500000000, A.D. 2022-Mar-12 00:00:00.0000, 4.102824030500060E+08, -2.226081130824415E+08, 6.270564588543893E+07,
2459657.500000000, A.D. 2022-Mar-19 00:00:00.0000, 4.146573368748587E+08, -2.137625460841580E+08, 6.157780665585993E+07,
2459664.500000000, A.D. 2022-Mar-26 00:00:00.0000, 4.188394641330014E+08, -2.048173233480107E+08, 6.042116991600077E+07,
2459671.500000000, A.D. 2022-Apr-02 00:00:00.0000, 4.228263120038005E+08, -1.957763529403330E+08, 5.923619710739575E+07,
2459678.500000000, A.D. 2022-Apr-09 00:00:00.0000, 4.266154747569970E+08, -1.866436053685361E+08, 5.802336401272362E+07,
2459685.500000000, A.D. 2022-Apr-16 00:00:00.0000, 4.302046164499946E+08, -1.774231129339027E+08, 5.678316069520183E+07,
2459692.500000000, A.D. 2022-Apr-23 00:00:00.0000, 4.335914730918672E+08, -1.681189674372325E+08, 5.551609161551765E+07,
2459699.500000000, A.D. 2022-Apr-30 00:00:00.0000, 4.367738524047785E+08, -1.587353184814169E+08, 5.422267591426088E+07,
2459706.500000000, A.D. 2022-May-07 00:00:00.0000, 4.397496342441159E+08, -1.492763743426923E+08, 5.290344741678839E+07,
2459713.500000000, A.D. 2022-May-14 00:00:00.0000, 4.425167730653266E+08, -1.397464023692059E+08, 5.155895448047408E+07,
2459720.500000000, A.D. 2022-May-21 00:00:00.0000, 4.450733004061751E+08, -1.301497281456049E+08, 5.018975993220632E+07,
2459727.500000000, A.D. 2022-May-28 00:00:00.0000, 4.474173269051330E+08, -1.204907343806340E+08, 4.879644106122531E+07,
2459734.500000000, A.D. 2022-Jun-04 00:00:00.0000, 4.495470441315498E+08, -1.107738598288019E+08, 4.737958961556493E+07,
2459741.500000000, A.D. 2022-Jun-11 00:00:00.0000, 4.514607263699970E+08, -1.010035982416523E+08, 4.593981178801189E+07,
2459748.500000000, A.D. 2022-Jun-18 00:00:00.0000, 4.531567323949568E+08, -9.118449733224541E+07, 4.447772818806843E+07,
2459755.500000000, A.D. 2022-Jun-25 00:00:00.0000, 4.546335072633880E+08, -8.132115778229170E+07, 4.299397379367938E+07,
2459762.500000000, A.D. 2022-Jul-02 00:00:00.0000, 4.558895842582021E+08, -7.141823235411230E+07, 4.148919786455954E+07,
2459769.500000000, A.D. 2022-Jul-09 00:00:00.0000, 4.569235873720512E+08, -6.148042492741230E+07, 3.996406379544672E+07,
2459776.500000000, A.D. 2022-Jul-16 00:00:00.0000, 4.577342342755677E+08, -5.151248837496194E+07, 3.841924900271252E+07,
2459783.500000000, A.D. 2022-Jul-23 00:00:00.0000, 4.583203375727374E+08, -4.151922119728319E+07, 3.685544505273046E+07,
2459790.500000000, A.D. 2022-Jul-30 00:00:00.0000, 4.586808044279019E+08, -3.150546627038842E+07, 3.527335775029400E+07,
2459797.500000000, A.D. 2022-Aug-06 00:00:00.0000, 4.588146381599066E+08, -2.147611105800730E+07, 3.367370690918712E+07,
2459804.500000000, A.D. 2022-Aug-13 00:00:00.0000, 4.587209409766248E+08, -1.143608653162809E+07, 3.205722610489985E+07,
2459811.500000000, A.D. 2022-Aug-20 00:00:00.0000, 4.583989162782313E+08, -1.390365299600374E+06, 3.042466251209112E+07,
2459818.500000000, A.D. 2022-Aug-27 00:00:00.0000, 4.578478705952100E+08, 8.656040329778481E+06, 2.877677676103242E+07,
2459825.500000000, A.D. 2022-Sep-03 00:00:00.0000, 4.570672154065620E+08, 1.869808024204880E+07, 2.711434278108456E+07,
2459832.500000000, A.D. 2022-Sep-10 00:00:00.0000, 4.560564689255689E+08, 2.873066839237579E+07, 2.543814762470531E+07,
2459839.500000000, A.D. 2022-Sep-17 00:00:00.0000, 4.548152578795310E+08, 3.874868466262354E+07, 2.374899126891582E+07,
2459846.500000000, A.D. 2022-Sep-24 00:00:00.0000, 4.533433193406455E+08, 4.874697664960706E+07, 2.204768638424060E+07,
2459853.500000000, A.D. 2022-Oct-01 00:00:00.0000, 4.516405028441346E+08, 5.872036136256578E+07, 2.033505804685362E+07,
2459860.500000000, A.D. 2022-Oct-08 00:00:00.0000, 4.497067731954174E+08, 6.866362735223310E+07, 1.861194339858025E+07,
2459867.500000000, A.D. 2022-Oct-15 00:00:00.0000, 4.475422130282117E+08, 7.857153847273341E+07, 1.687919143774603E+07,
2459874.500000000, A.D. 2022-Oct-22 00:00:00.0000, 4.451470229290730E+08, 8.843883759544919E+07, 1.513766300349581E+07,
2459881.500000000, A.D. 2022-Oct-29 00:00:00.0000, 4.425215216243641E+08, 9.826024768186250E+07, 1.338823051238197E+07,
2459888.500000000, A.D. 2022-Nov-05 00:00:00.0000, 4.396661483238751E+08, 1.080304729564933E+08, 1.163177747807584E+07,
2459895.500000000, A.D. 2022-Nov-12 00:00:00.0000, 4.365814652511867E+08, 1.177442014483409E+08, 9.869198097664885E+06,
2459902.500000000, A.D. 2022-Nov-19 00:00:00.0000, 4.332681596375141E+08, 1.273961079475754E+08, 8.101396892383531E+06,
2459909.500000000, A.D. 2022-Nov-26 00:00:00.0000, 4.297270454372014E+08, 1.369808569803700E+08, 6.329288346036062E+06,
2459916.500000000, A.D. 2022-Dec-03 00:00:00.0000, 4.259590649262831E+08, 1.464931057902970E+08, 4.553796524683453E+06,
2459923.500000000, A.D. 2022-Dec-10 00:00:00.0000, 4.219652902246125E+08, 1.559275073448856E+08, 2.775854674699724E+06,
2459930.500000000, A.D. 2022-Dec-17 00:00:00.0000, 4.177469247610856E+08, 1.652787133423216E+08, 9.964047946750447E+05,
2459937.500000000, A.D. 2022-Dec-24 00:00:00.0000, 4.133053047863212E+08, 1.745413771524202E+08, -7.836028344380781E+05,
2459944.500000000, A.D. 2022-Dec-31 00:00:00.0000, 4.086419012855467E+08, 1.837101567987891E+08, -2.563210185207725E+06,
2459951.500000000, A.D. 2023-Jan-07 00:00:00.0000, 4.037583224081362E+08, 1.927797189429600E+08, -4.341452018586427E+06,
2459958.500000000, A.D. 2023-Jan-14 00:00:00.0000, 3.986563144390624E+08, 2.017447443670706E+08, -6.117356196769029E+06,
2459965.500000000, A.D. 2023-Jan-21 00:00:00.0000, 3.933377606637275E+08, 2.105999317841631E+08, -7.889943973998129E+06,
2459972.500000000, A.D. 2023-Jan-28 00:00:00.0000, 3.878046817919304E+08, 2.193399997790070E+08, -9.658230618082568E+06,
2459979.500000000, A.D. 2023-Feb-04 00:00:00.0000, 3.820592377264212E+08, 2.279596899037021E+08, -1.142122609648088E+07,
2459986.500000000, A.D. 2023-Feb-11 00:00:00.0000, 3.761037288742498E+08, 2.364537707316523E+08, -1.317793567823310E+07,
2459993.500000000, A.D. 2023-Feb-18 00:00:00.0000, 3.699405969313551E+08, 2.448170420434899E+08, -1.492736051324466E+07,
2460000.500000000, A.D. 2023-Feb-25 00:00:00.0000, 3.635724253959996E+08, 2.530443389796075E+08, -1.666849822611456E+07,
2460007.500000000, A.D. 2023-Mar-04 00:00:00.0000, 3.570019399055482E+08, 2.611305361753730E+08, -1.840034353196107E+07,
2460014.500000000, A.D. 2023-Mar-11 00:00:00.0000, 3.502320084184171E+08, 2.690705518780783E+08, -2.012188887626098E+07,
2460021.500000000, A.D. 2023-Mar-18 00:00:00.0000, 3.432656412834068E+08, 2.768593519952886E+08, -2.183212510651265E+07,
2460028.500000000, A.D. 2023-Mar-25 00:00:00.0000, 3.361059913967459E+08, 2.844919540258859E+08, -2.353004219785856E+07,
2460035.500000000, A.D. 2023-Apr-01 00:00:00.0000, 3.287563548692470E+08, 2.919634312637353E+08, -2.521463003932413E+07,
2460042.500000000, A.D. 2023-Apr-08 00:00:00.0000, 3.212201715841830E+08, 2.992689184923244E+08, -2.688487912389341E+07,
2460049.500000000, A.D. 2023-Apr-15 00:00:00.0000, 3.135010233015038E+08, 3.064036180579614E+08, -2.853978101761636E+07,
2460056.500000000, A.D. 2023-Apr-22 00:00:00.0000, 3.056026311132938E+08, 3.133628032668238E+08, -3.017832902252515E+07,
2460063.500000000, A.D. 2023-Apr-29 00:00:00.0000, 2.975288549832288E+08, 3.201418213529114E+08, -3.179951910003358E+07,
2460070.500000000, A.D. 2023-May-06 00:00:00.0000, 2.892836936042489E+08, 3.267360977900103E+08, -3.340235074721795E+07,
2460077.500000000, A.D. 2023-May-13 00:00:00.0000, 2.808712835919914E+08, 3.331411410473813E+08, -3.498582780862162E+07,
2460084.500000000, A.D. 2023-May-20 00:00:00.0000, 2.722958982436981E+08, 3.393525472916141E+08, -3.654895928451958E+07,
2460091.500000000, A.D. 2023-May-27 00:00:00.0000, 2.635619460522251E+08, 3.453660049982735E+08, -3.809076015515117E+07,
2460098.500000000, A.D. 2023-Jun-03 00:00:00.0000, 2.546739690291817E+08, 3.511772994919117E+08, -3.961025222338893E+07,
2460105.500000000, A.D. 2023-Jun-10 00:00:00.0000, 2.456366408576918E+08, 3.567823173929272E+08, -4.110646497838666E+07,
2460112.500000000, A.D. 2023-Jun-17 00:00:00.0000, 2.364547649608473E+08, 3.621770509032304E+08, -4.257843649243586E+07,
2460119.500000000, A.D. 2023-Jun-24 00:00:00.0000, 2.271332728035045E+08, 3.673576019785385E+08, -4.402521437498914E+07,
2460126.500000000, A.D. 2023-Jul-01 00:00:00.0000, 2.176772226795240E+08, 3.723201872072328E+08, -4.544585673866095E+07,
2460133.500000000, A.D. 2023-Jul-08 00:00:00.0000, 2.080917973092915E+08, 3.770611442068027E+08, -4.683943295527315E+07,
2460140.500000000, A.D. 2023-Jul-15 00:00:00.0000, 1.983822989667541E+08, 3.815769366970981E+08, -4.820502431397489E+07,
2460147.500000000, A.D. 2023-Jul-22 00:00:00.0000, 1.885541456563174E+08, 3.858641572100541E+08, -4.954172498782763E+07,
$$EOE